[{"OBJECT_NAME":"YAOGAN-7","OBJECT_ID":"2009-069A","EPOCH":"2026-03-09T15:13:41.910240","MEAN_MOTION":14.77892763,"ECCENTRICITY":0.0024777,"INCLINATION":98.0209,"RA_OF_ASC_NODE":315.0474,"ARG_OF_PERICENTER":3.5312,"MEAN_ANOMALY":356.6068,"EPHEMERIS_TYPE":0,"CLASSIFICATION_TYPE":"U","NORAD_CAT_ID":36110,"ELEMENT_SET_NO":999,"REV_AT_EPOCH":87492,"BSTAR":0.00013889,"MEAN_MOTION_DOT":9.51e-6,"MEAN_MOTION_DDOT":0},{"OBJECT_NAME":"IRIDIUM 33 DEB","OBJECT_ID":"1997-051TY","EPOCH":"2026-03-07T22:53:55.599072","MEAN_MOTION":14.83579995,"ECCENTRICITY":0.00087918,"INCLINATION":86.343,"RA_OF_ASC_NODE":303.9409,"ARG_OF_PERICENTER":267.2236,"MEAN_ANOMALY":92.798,"EPHEMERIS_TYPE":0,"CLASSIFICATION_TYPE":"U","NORAD_CAT_ID":35915,"ELEMENT_SET_NO":999,"REV_AT_EPOCH":9348,"BSTAR":0.0022315762,"MEAN_MOTION_DOT":0.0001845,"MEAN_MOTION_DDOT":0}]
